{"type": "FeatureCollection", "features": [ {"type": "Feature", "properties": {"norad_id": 38512, "name": "FENGYUN 1C DEB", "group": "fengyun-1c-debris", "lat": 76.52973861905392, "lon": 77.66577069766493, "alt_km": 836.100110540061, "timestamp": "2025-12-02T15:49:07.480307+00:00", "meta": {"OBJECT_NAME": "FENGYUN 1C DEB", "OBJECT_ID": "1999-025ESX", "EPOCH": "2025-11-24T15:04:33.900960", "MEAN_MOTION": 13.73922037, "ECCENTRICITY": 0.02258852, "INCLINATION": 98.3776, "RA_OF_ASC_NODE": 212.6517, "ARG_OF_PERICENTER": 154.1881, "MEAN_ANOMALY": 207.075, "EPHEMERIS_TYPE": 0, "CLASSIFICATION_TYPE": "U", "NORAD_CAT_ID": 38512, "ELEMENT_SET_NO": 999, "REV_AT_EPOCH": 59321, "BSTAR": 0.0011065478, "MEAN_MOTION_DOT": 1.212e-05, "MEAN_MOTION_DDOT": 0}, "tle": {"line1": "1 38512U 99025ESX 25328.62817015  .00001212  00000+0  11065-2 0  9994", "line2": "2 38512  98.3776 212.6517 0225885 154.1881 207.0750 13.73922037593211"}}, "geometry": {"type": "Point", "coordinates": [77.66577069766493, 76.52973861905392]}}, {"type": "Feature", "properties": {"norad_id": 38513, "name": "FENGYUN 1C DEB", "group": "fengyun-1c-debris", "lat": -70.43574415837715, "lon": -99.31259788331974, "alt_km": 475.45594240546507, "timestamp": "2025-12-02T15:49:07.480318+00:00", "meta": {"OBJECT_NAME": "FENGYUN 1C DEB", "OBJECT_ID": "1999-025ESY", "EPOCH": "2025-11-05T11:10:23.483712", "MEAN_MOTION": 14.74191137, "ECCENTRICITY": 0.02562234, "INCLINATION": 97.6286, "RA_OF_ASC_NODE": 212.8757, "ARG_OF_PERICENTER": 7.2303, "MEAN_ANOMALY": 353.249, "EPHEMERIS_TYPE": 0, "CLASSIFICATION_TYPE": "U", "NORAD_CAT_ID": 38513, "ELEMENT_SET_NO": 999, "REV_AT_EPOCH": 63108, "BSTAR": 0.0018759347, "MEAN_MOTION_DOT": 0.0002109, "MEAN_MOTION_DDOT": 0}, "tle": {"line1": "1 38513U 99025ESY 25309.46554958  .00021090  00000+0  18759-2 0  9993", "line2": "2 38513  97.6286 212.8757 0256223   7.2303 353.2490 14.74191137631089"}}, "geometry": {"type": "Point", "coordinates": [-99.31259788331974, -70.43574415837715]}}, {"type": "Feature", "properties": {"norad_id": 38514, "name": "FENGYUN 1C DEB", "group": "fengyun-1c-debris", "lat": 55.86224845338224, "lon": -160.74696768741617, "alt_km": 796.0946433638983, "timestamp": "2025-12-02T15:49:07.480328+00:00", "meta": {"OBJECT_NAME": "FENGYUN 1C DEB", "OBJECT_ID": "1999-025ESZ", "EPOCH": "2025-11-30T20:50:31.556256", "MEAN_MOTION": 14.15152133, "ECCENTRICITY": 0.0272829, "INCLINATION": 98.0565, "RA_OF_ASC_NODE": 5.5748, "ARG_OF_PERICENTER": 48.6771, "MEAN_ANOMALY": 313.754, "EPHEMERIS_TYPE": 0, "CLASSIFICATION_TYPE": "U", "NORAD_CAT_ID": 38514, "ELEMENT_SET_NO": 999, "REV_AT_EPOCH": 87828, "BSTAR": 0.0055008692, "MEAN_MOTION_DOT": 0.000153, "MEAN_MOTION_DDOT": 0}, "tle": {"line1": "1 38514U 99025ESZ 25334.86842079  .00015300  00000+0  55009-2 0  9996", "line2": "2 38514  98.0565   5.5748 0272829  48.6771 313.7540 14.15152133878280"}}, "geometry": {"type": "Point", "coordinates": [-160.74696768741617, 55.86224845338224]}}, {"type": "Feature", "properties": {"norad_id": 38516, "name": "FENGYUN 1C DEB", "group": "fengyun-1c-debris", "lat": 39.38199390676067, "lon": 147.81655272751533, "alt_km": 698.5037827486776, "timestamp": "2025-12-02T15:49:07.480339+00:00", "meta": {"OBJECT_NAME": "FENGYUN 1C DEB", "OBJECT_ID": "1999-025ETB", "EPOCH": "2025-12-02T05:07:17.506848", "MEAN_MOTION": 14.34037211, "ECCENTRICITY": 0.01108822, "INCLINATION": 98.4424, "RA_OF_ASC_NODE": 320.3786, "ARG_OF_PERICENTER": 156.3377, "MEAN_ANOMALY": 204.2964, "EPHEMERIS_TYPE": 0, "CLASSIFICATION_TYPE": "U", "NORAD_CAT_ID": 38516, "ELEMENT_SET_NO": 999, "REV_AT_EPOCH": 84722, "BSTAR": 0.00014884077, "MEAN_MOTION_DOT": 4.02e-06, "MEAN_MOTION_DDOT": 0}, "tle": {"line1": "1 38516U 99025ETB 25336.21339707  .00000402  00000+0  14884-3 0  9992", "line2": "2 38516  98.4424 320.3786 0110882 156.3377 204.2964 14.34037211847223"}}, "geometry": {"type": "Point", "coordinates": [147.81655272751533, 39.38199390676067]}}, {"type": "Feature", "properties": {"norad_id": 38717, "name": "FENGYUN 1C DEB", "group": "fengyun-1c-debris", "lat": 27.539879877950117, "lon": 176.35349170974698, "alt_km": 850.6969359259228, "timestamp": "2025-12-02T15:49:07.480349+00:00", "meta": {"OBJECT_NAME": "FENGYUN 1C DEB", "OBJECT_ID": "1999-025ETJ", "EPOCH": "2025-12-01T00:20:32.745696", "MEAN_MOTION": 14.19799614, "ECCENTRICITY": 0.00572573, "INCLINATION": 99.1602, "RA_OF_ASC_NODE": 349.8258, "ARG_OF_PERICENTER": 27.4617, "MEAN_ANOMALY": 1.3685, "EPHEMERIS_TYPE": 0, "CLASSIFICATION_TYPE": "U", "NORAD_CAT_ID": 38717, "ELEMENT_SET_NO": 999, "REV_AT_EPOCH": 58260, "BSTAR": 0.0018132413, "MEAN_MOTION_DOT": 3.86e-05, "MEAN_MOTION_DDOT": 0}, "tle": {"line1": "1 38717U 99025ETJ 25335.01426789  .00003860  00000+0  18132-2 0  9999", "line2": "2 38717  99.1602 349.8258 0057257  27.4617   1.3685 14.19799614582602"}}, "geometry": {"type": "Point", "coordinates": [176.35349170974698, 27.539879877950117]}}, {"type": "Feature", "properties": {"norad_id": 38722, "name": "FENGYUN 1C DEB", "group": "fengyun-1c-debris", "lat": -55.86136819090998, "lon": -120.34556371900558, "alt_km": 744.5467319077261, "timestamp": "2025-12-02T15:49:07.480359+00:00", "meta": {"OBJECT_NAME": "FENGYUN 1C DEB", "OBJECT_ID": "1999-025ETP", "EPOCH": "2025-12-01T02:30:36.772128", "MEAN_MOTION": 14.57829066, "ECCENTRICITY": 0.01491283, "INCLINATION": 99.3543, "RA_OF_ASC_NODE": 71.9781, "ARG_OF_PERICENTER": 129.9808, "MEAN_ANOMALY": 231.4593, "EPHEMERIS_TYPE": 0, "CLASSIFICATION_TYPE": "U", "NORAD_CAT_ID": 38722, "ELEMENT_SET_NO": 999, "REV_AT_EPOCH": 70294, "BSTAR": 0.003549588, "MEAN_MOTION_DOT": 0.00018924, "MEAN_MOTION_DDOT": 0}, "tle": {"line1": "1 38722U 99025ETP 25335.10459227  .00018924  00000+0  35496-2 0  9997", "line2": "2 38722  99.3543  71.9781 0149128 129.9808 231.4593 14.57829066702949"}}, "geometry": {"type": "Point", "coordinates": [-120.34556371900558, -55.86136819090998]}}, {"type": "Feature", "properties": {"norad_id": 38724, "name": "FENGYUN 1C DEB", "group": "fengyun-1c-debris", "lat": -76.29858998064871, "lon": 24.948231313910753, "alt_km": 939.8920704543198, "timestamp": "2025-12-02T15:49:07.480369+00:00", "meta": {"OBJECT_NAME": "FENGYUN 1C DEB", "OBJECT_ID": "1999-025ETR", "EPOCH": "2025-11-13T12:10:01.066656", "MEAN_MOTION": 14.14277973, "ECCENTRICITY": 0.012547, "INCLINATION": 98.7406, "RA_OF_ASC_NODE": 327.0705, "ARG_OF_PERICENTER": 154.7752, "MEAN_ANOMALY": 205.962, "EPHEMERIS_TYPE": 0, "CLASSIFICATION_TYPE": "U", "NORAD_CAT_ID": 38724, "ELEMENT_SET_NO": 999, "REV_AT_EPOCH": 56211, "BSTAR": 0.0084973, "MEAN_MOTION_DOT": 0.00017498, "MEAN_MOTION_DDOT": 0}, "tle": {"line1": "1 38724U 99025ETR 25317.50695679  .00017498  00000+0  84973-2 0  9995", "line2": "2 38724  98.7406 327.0705 0125470 154.7752 205.9620 14.14277973562118"}}, "geometry": {"type": "Point", "coordinates": [24.948231313910753, -76.29858998064871]}}, {"type": "Feature", "properties": {"norad_id": 38725, "name": "FENGYUN 1C DEB", "group": "fengyun-1c-debris", "lat": -55.02897890532293, "lon": 114.3814496881196, "alt_km": 734.0776701652258, "timestamp": "2025-12-02T15:49:07.480380+00:00", "meta": {"OBJECT_NAME": "FENGYUN 1C DEB", "OBJECT_ID": "1999-025ETS", "EPOCH": "2025-11-29T14:49:40.883520", "MEAN_MOTION": 14.42458276, "ECCENTRICITY": 0.00341154, "INCLINATION": 98.8716, "RA_OF_ASC_NODE": 98.3167, "ARG_OF_PERICENTER": 295.1379, "MEAN_ANOMALY": 64.6272, "EPHEMERIS_TYPE": 0, "CLASSIFICATION_TYPE": "U", "NORAD_CAT_ID": 38725, "ELEMENT_SET_NO": 999, "REV_AT_EPOCH": 73163, "BSTAR": 0.0025685437, "MEAN_MOTION_DOT": 8.527e-05, "MEAN_MOTION_DDOT": 0}, "tle": {"line1": "1 38725U 99025ETS 25333.61783430  .00008527  00000+0  25685-2 0  9997", "line2": "2 38725  98.8716  98.3167 0034115 295.1379  64.6272 14.42458276731630"}}, "geometry": {"type": "Point", "coordinates": [114.3814496881196, -55.02897890532293]}}, {"type": "Feature", "properties": {"norad_id": 38726, "name": "FENGYUN 1C DEB", "group": "fengyun-1c-debris", "lat": -72.52009793496558, "lon": 29.685348307043117, "alt_km": 581.6969409591393, "timestamp": "2025-12-02T15:49:07.480390+00:00", "meta": {"OBJECT_NAME": "FENGYUN 1C DEB", "OBJECT_ID": "1999-025ETT", "EPOCH": "2025-11-30T19:20:21.412896", "MEAN_MOTION": 15.0026547, "ECCENTRICITY": 0.00225441, "INCLINATION": 99.1383, "RA_OF_ASC_NODE": 356.7696, "ARG_OF_PERICENTER": 164.6259, "MEAN_ANOMALY": 195.5649, "EPHEMERIS_TYPE": 0, "CLASSIFICATION_TYPE": "U", "NORAD_CAT_ID": 38726, "ELEMENT_SET_NO": 999, "REV_AT_EPOCH": 69676, "BSTAR": 0.0060108902, "MEAN_MOTION_DOT": 0.00076377, "MEAN_MOTION_DDOT": 0}, "tle": {"line1": "1 38726U 99025ETT 25334.80580339  .00076377  00000+0  60109-2 0  9991", "line2": "2 38726  99.1383 356.7696 0022544 164.6259 195.5649 15.00265470696766"}}, "geometry": {"type": "Point", "coordinates": [29.685348307043117, -72.52009793496558]}}, {"type": "Feature", "properties": {"norad_id": 38728, "name": "FENGYUN 1C DEB", "group": "fengyun-1c-debris", "lat": -79.46582644157755, "lon": 81.35201037574993, "alt_km": 719.9287127945663, "timestamp": "2025-12-02T15:49:07.480401+00:00", "meta": {"OBJECT_NAME": "FENGYUN 1C DEB", "OBJECT_ID": "1999-025ETV", "EPOCH": "2025-11-16T05:14:29.255424", "MEAN_MOTION": 14.70051998, "ECCENTRICITY": 0.007529, "INCLINATION": 99.2572, "RA_OF_ASC_NODE": 304.0044, "ARG_OF_PERICENTER": 134.9946, "MEAN_ANOMALY": 282.883, "EPHEMERIS_TYPE": 0, "CLASSIFICATION_TYPE": "U", "NORAD_CAT_ID": 38728, "ELEMENT_SET_NO": 999, "REV_AT_EPOCH": 65221, "BSTAR": 0.0016686128, "MEAN_MOTION_DOT": 0.00010414, "MEAN_MOTION_DDOT": 0}, "tle": {"line1": "1 38728U 99025ETV 25320.21839416  .00010414  00000+0  16686-2 0  9997", "line2": "2 38728  99.2572 304.0044 0075290 134.9946 282.8830 14.70051998652219"}}, "geometry": {"type": "Point", "coordinates": [81.35201037574993, -79.46582644157755]}}]}